STARLINK-35578          
1 66168U 25240Y   26157.28648377  .00025417  00000+0  86692-3 0  9998
2 66168  53.1574  11.2307 0001208  63.5746 296.5379 15.30216591 35552
STARLINK-35638          
1 66169U 25240Z   26157.30231185  .00027088  00000+0  92285-3 0  9998
2 66169  53.1592  11.3347 0001168 123.5895 236.5217 15.30217585 35554
STARLINK-35585          
1 66170U 25240AA  26156.87756046  .00036347  00000+0  10804-2 0  9993
2 66170  53.1596  12.2408 0001255 116.6011 243.5120 15.34436501 35509
STARLINK-35606          
1 66171U 25240AB  26157.30826211  .00028610  00000+0  85416-3 0  9991
2 66171  53.1631   9.9496 0001353  82.7378 277.3779 15.34418849 35575
STARLINK-35627          
1 66172U 25240AC  26157.29281781  .00024443  00000+0  83607-3 0  9997
2 66172  53.1593  11.2696 0001259  71.9537 288.1601 15.30146376 35554
STARLINK-35634          
1 66173U 25240AD  26157.32089292  .00032341  00000+0  96376-3 0  9998
2 66173  53.1604  10.0340 0001610  58.9336 301.1824 15.34413884 35574
GAOFEN-14 02            
1 66175U 25242A   26157.49203916  .00007691  00000+0  30912-3 0  9995
2 66175  97.4119 233.1548 0000530  99.8733 260.2565 15.25207438 34067
STARLINK-35363          
1 66178U 25243B   26157.39609293  .00031059  00000+0  10553-2 0  9999
2 66178  53.1534 193.3300 0001022 155.4298 204.6752 15.30235051 34232
STARLINK-35346          
1 66179U 25243C   26157.59486303  .01047953  00000+0  30968-1 0  9999
2 66179  53.1581 192.4333 0002051 128.5334 231.5852 15.31705920 34267
STARLINK-35335          
1 66180U 25243D   26157.40246054  .00020998  00000+0  71989-3 0  9997
2 66180  53.1589 193.3662 0001742  75.1590 284.9604 15.30163227 34230
STARLINK-35342          
1 66181U 25243E   26157.40455631  .00039965  00000+0  13531-2 0  9993
2 66181  53.1588 193.3715 0001211 117.1740 242.9385 15.30227858 34235
STARLINK-35333          
1 66182U 25243F   26156.42694594  .00009476  00000+0  33170-3 0  9994
2 66182  53.1572 197.9370 0001343 138.9136 221.1966 15.30193684 34088
STARLINK-35310          
1 66183U 25243G   26157.58337963  .00045717  00000+0  13933-2 0  9999
2 66183  53.1579 192.5173 0001305  74.7333 207.2298 15.33540316  5714
STARLINK-35317          
1 66184U 25243H   26157.46250510  .00019728  00000+0  67634-3 0  9990
2 66184  53.1576 193.0309 0001012  90.9900 269.1217 15.30204041 34241
STARLINK-35377          
1 66185U 25243J   26157.53824549  .00038752  00000+0  13034-2 0  9990
2 66185  53.1565 192.7921 0006383  79.0900 281.0819 15.30440706 34252
STARLINK-35365          
1 66186U 25243K   26157.40349279  .00021675  00000+0  74113-3 0  9991
2 66186  53.1551 193.3799 0000937 131.2088 228.8994 15.30228695 34237
STARLINK-35350          
1 66187U 25243L   26156.43117064  .00022871  00000+0  78179-3 0  9994
2 66187  53.1577 197.9719 0001131 112.8309 247.2811 15.30205737 34084
STARLINK-35041          
1 66188U 25243M   26157.39400629  .00043055  00000+0  14563-2 0  9996
2 66188  53.1577 193.3156 0001012  89.8479 270.2638 15.30223572 34236
STARLINK-34694          
1 66189U 25243N   26157.38766946  .00034962  00000+0  11852-2 0  9998
2 66189  53.1573 193.2744 0000803  92.2902 267.8190 15.30249667 34239
STARLINK-34863          
1 66190U 25243P   26157.40032678  .00040967  00000+0  13855-2 0  9998
2 66190  53.1557 193.3548 0001078  75.0628 285.0492 15.30252210 34230
STARLINK-35061          
1 66191U 25243Q   26156.43327991  .00009532  00000+0  33356-3 0  9998
2 66191  53.1586 197.9809 0001101 102.1619 257.9505 15.30196786 34083
STARLINK-34937          
1 66192U 25243R   26156.43644410  .00013873  00000+0  47945-3 0  9999
2 66192  53.1573 198.0025 0001305 149.1735 210.9343 15.30213469 34085
STARLINK-35197          
1 66193U 25243S   26156.65654979  .00022209  00000+0  76025-3 0  9999
2 66193  53.1573 196.5295 0001363  71.8237 288.2912 15.30177246 34127
STARLINK-35374          
1 66194U 25243T   26156.74891961  .00016856  00000+0  55358-3 0  9991
2 66194  53.1571 195.6861 0001177  93.4112 266.7024 15.31706855 34142
STARLINK-34813          
1 66195U 25243U   26157.38134095  .00023898  00000+0  81595-3 0  9997
2 66195  53.1566 193.2326 0001317  91.2743 268.8408 15.30217569 34236
STARLINK-35409          
1 66196U 25243V   26156.40479015  .00014888  00000+0  51382-3 0  9994
2 66196  53.1560 197.8056 0001004  89.1828 270.9287 15.30196556 34088
STARLINK-35259          
1 66197U 25243W   26157.39082723  .00024334  00000+0  83000-3 0  9999
2 66197  53.1573 193.2950 0001138  83.2590 276.8540 15.30239858 34232
STARLINK-35518          
1 66198U 25243X   26157.48464750  .00032651  00000+0  11079-2 0  9991
2 66198  53.1577 193.1639 0001215 109.9250 250.1882 15.30252104 34249
STARLINK-35509          
1 66199U 25243Y   26157.37395333  .00042630  00000+0  14417-2 0  9997
2 66199  53.1586 193.1827 0001231  83.6063 276.5078 15.30233120 34232
STARLINK-35551          
1 66200U 25243Z   26157.37713714  .00046940  00000+0  15844-2 0  9990
2 66200  53.1571 193.2029 0001199  76.2040 283.9094 15.30252549 34236
