OBJECT_NAME,OBJECT_ID,EPOCH,MEAN_MOTION,ECCENTRICITY,INCLINATION,RA_OF_ASC_NODE,ARG_OF_PERICENTER,MEAN_ANOMALY,EPHEMERIS_TYPE,CLASSIFICATION_TYPE,NORAD_CAT_ID,ELEMENT_SET_NO,REV_AT_EPOCH,BSTAR,MEAN_MOTION_DOT,MEAN_MOTION_DDOT
STARLINK-35578,2025-240Y,2026-06-06T06:52:32.197728,15.30216591,.00012089,53.1574,11.2307,63.5746,296.5379,0,U,66168,999,3555,.86691759E-3,.25417E-3,0
STARLINK-35638,2025-240Z,2026-06-06T07:15:19.743840,15.30217585,.00011685,53.1592,11.3347,123.5895,236.5217,0,U,66169,999,3555,.9228546E-3,.27088E-3,0
STARLINK-35585,2025-240AA,2026-06-05T21:03:41.223744,15.34436501,.00012552,53.1596,12.2408,116.6011,243.5120,0,U,66170,999,3550,.10804355E-2,.36347E-3,0
STARLINK-35606,2025-240AB,2026-06-06T07:23:53.846304,15.34418849,.00013536,53.1631,9.9496,82.7378,277.3779,0,U,66171,999,3557,.85416291E-3,.2861E-3,0
STARLINK-35627,2025-240AC,2026-06-06T07:01:39.458784,15.30146376,.00012595,53.1593,11.2696,71.9537,288.1601,0,U,66172,999,3555,.83606727E-3,.24443E-3,0
STARLINK-35634,2025-240AD,2026-06-06T07:42:05.148288,15.34413884,.00016101,53.1604,10.0340,58.9336,301.1824,0,U,66173,999,3557,.96375871E-3,.32341E-3,0
GAOFEN-14 02,2025-242A,2026-06-06T11:48:32.183424,15.25207438,.00005304,97.4119,233.1548,99.8733,260.2565,0,U,66175,999,3406,.3091228E-3,.7691E-4,0
STARLINK-35363,2025-243B,2026-06-06T09:30:22.429152,15.30235051,.00010229,53.1534,193.3300,155.4298,204.6752,0,U,66178,999,3423,.10552503E-2,.31059E-3,0
STARLINK-35346,2025-243C,2026-06-06T14:16:36.165792,15.31705920,.00020513,53.1581,192.4333,128.5334,231.5852,0,U,66179,999,3426,.30968307E-1,.1047953E-1,0
STARLINK-35335,2025-243D,2026-06-06T09:39:32.590656,15.30163227,.00017422,53.1589,193.3662,75.1590,284.9604,0,U,66180,999,3423,.71988754E-3,.20998E-3,0
STARLINK-35342,2025-243E,2026-06-06T09:42:33.665184,15.30227858,.00012118,53.1588,193.3715,117.1740,242.9385,0,U,66181,999,3423,.1353062E-2,.39965E-3,0
STARLINK-35333,2025-243F,2026-06-05T10:14:48.129216,15.30193684,.00013439,53.1572,197.9370,138.9136,221.1966,0,U,66182,999,3408,.33170226E-3,.9476E-4,0
STARLINK-35310,2025-243G,2026-06-06T14:00:04.000032,15.33540316,.00013057,53.1579,192.5173,74.7333,207.2298,0,U,66183,999,571,.13933101E-2,.45717E-3,0
STARLINK-35317,2025-243H,2026-06-06T11:06:00.440640,15.30204041,.00010129,53.1576,193.0309,90.9900,269.1217,0,U,66184,999,3424,.67634006E-3,.19728E-3,0
STARLINK-35377,2025-243J,2026-06-06T12:55:04.410336,15.30440706,.00063836,53.1565,192.7921,79.0900,281.0819,0,U,66185,999,3425,.13033519E-2,.38752E-3,0
STARLINK-35365,2025-243K,2026-06-06T09:41:01.777056,15.30228695,.00009372,53.1551,193.3799,131.2088,228.8994,0,U,66186,999,3423,.74113016E-3,.21675E-3,0
STARLINK-35350,2025-243L,2026-06-05T10:20:53.143296,15.30205737,.00011315,53.1577,197.9719,112.8309,247.2811,0,U,66187,999,3408,.78178833E-3,.22871E-3,0
STARLINK-35041,2025-243M,2026-06-06T09:27:22.143456,15.30223572,.00010128,53.1577,193.3156,89.8479,270.2638,0,U,66188,999,3423,.14563329E-2,.43055E-3,0
STARLINK-34694,2025-243N,2026-06-06T09:18:14.641344,15.30249667,.00008033,53.1573,193.2744,92.2902,267.8190,0,U,66189,999,3423,.11851813E-2,.34962E-3,0
STARLINK-34863,2025-243P,2026-06-06T09:36:28.233792,15.30252210,.00010784,53.1557,193.3548,75.0628,285.0492,0,U,66190,999,3423,.13854523E-2,.40967E-3,0
STARLINK-35061,2025-243Q,2026-06-05T10:23:55.384224,15.30196786,.00011014,53.1586,197.9809,102.1619,257.9505,0,U,66191,999,3408,.33356483E-3,.9532E-4,0
STARLINK-34937,2025-243R,2026-06-05T10:28:28.770240,15.30213469,.00013051,53.1573,198.0025,149.1735,210.9343,0,U,66192,999,3408,.47944872E-3,.13873E-3,0
STARLINK-35197,2025-243S,2026-06-05T15:45:25.901856,15.30177246,.0001363,53.1573,196.5295,71.8237,288.2912,0,U,66193,999,3412,.76024964E-3,.22209E-3,0
STARLINK-35374,2025-243T,2026-06-05T17:58:26.654304,15.31706855,.00011775,53.1571,195.6861,93.4112,266.7024,0,U,66194,999,3414,.553577E-3,.16856E-3,0
STARLINK-34813,2025-243U,2026-06-06T09:09:07.858080,15.30217569,.00013172,53.1566,193.2326,91.2743,268.8408,0,U,66195,999,3423,.8159507E-3,.23898E-3,0
STARLINK-35409,2025-243V,2026-06-05T09:42:53.868960,15.30196556,.00010048,53.1560,197.8056,89.1828,270.9287,0,U,66196,999,3408,.51382125E-3,.14888E-3,0
STARLINK-35259,2025-243W,2026-06-06T09:22:47.472672,15.30239858,.00011389,53.1573,193.2950,83.2590,276.8540,0,U,66197,999,3423,.8299961E-3,.24334E-3,0
STARLINK-35518,2025-243X,2026-06-06T11:37:53.544000,15.30252104,.00012155,53.1577,193.1639,109.9250,250.1882,0,U,66198,999,3424,.110791E-2,.32651E-3,0
STARLINK-35509,2025-243Y,2026-06-06T08:58:29.567712,15.30233120,.00012314,53.1586,193.1827,83.6063,276.5078,0,U,66199,999,3423,.14417359E-2,.4263E-3,0
STARLINK-35551,2025-243Z,2026-06-06T09:03:04.648896,15.30252549,.00011993,53.1571,193.2029,76.2040,283.9094,0,U,66200,999,3423,.15844007E-2,.4694E-3,0
